<?xml version="1.0" encoding="UTF-8"?>
<ndm xmlns:xsi="http://www.w3.org/2001/XMLSchema-instance" xsi:noNamespaceSchemaLocation="https://sanaregistry.org/r/ndmxml_unqualified/ndmxml-2.0.0-master-2.0.xsd">
<omm id="CCSDS_OMM_VERS" version="2.0">
<header><CREATION_DATE/><ORIGINATOR/></header><body><segment><metadata><OBJECT_NAME>ORBCOMM FM33</OBJECT_NAME><OBJECT_ID>1999-065D</OBJECT_ID><CENTER_NAME>EARTH</CENTER_NAME><REF_FRAME>TEME</REF_FRAME><TIME_SYSTEM>UTC</TIME_SYSTEM><MEAN_ELEMENT_THEORY>SGP4</MEAN_ELEMENT_THEORY></metadata><data><meanElements><EPOCH>2025-04-17T19:13:59.241504</EPOCH><MEAN_MOTION>14.39837202</MEAN_MOTION><ECCENTRICITY>.0008883</ECCENTRICITY><INCLINATION>45.0282</INCLINATION><RA_OF_ASC_NODE>286.0231</RA_OF_ASC_NODE><ARG_OF_PERICENTER>122.3268</ARG_OF_PERICENTER><MEAN_ANOMALY>237.8443</MEAN_ANOMALY></meanElements><tleParameters><EPHEMERIS_TYPE>0</EPHEMERIS_TYPE><CLASSIFICATION_TYPE>U</CLASSIFICATION_TYPE><NORAD_CAT_ID>25983</NORAD_CAT_ID><ELEMENT_SET_NO>999</ELEMENT_SET_NO><REV_AT_EPOCH>32736</REV_AT_EPOCH><BSTAR>.69608E-3</BSTAR><MEAN_MOTION_DOT>.2064E-4</MEAN_MOTION_DOT><MEAN_MOTION_DDOT>0</MEAN_MOTION_DDOT></tleParameters></data></segment></body></omm>
<omm id="CCSDS_OMM_VERS" version="2.0">
<header><CREATION_DATE/><ORIGINATOR/></header><body><segment><metadata><OBJECT_NAME>ORBCOMM FM36</OBJECT_NAME><OBJECT_ID>1999-065E</OBJECT_ID><CENTER_NAME>EARTH</CENTER_NAME><REF_FRAME>TEME</REF_FRAME><TIME_SYSTEM>UTC</TIME_SYSTEM><MEAN_ELEMENT_THEORY>SGP4</MEAN_ELEMENT_THEORY></metadata><data><meanElements><EPOCH>2025-04-19T03:30:13.920480</EPOCH><MEAN_MOTION>14.37946936</MEAN_MOTION><ECCENTRICITY>.0004174</ECCENTRICITY><INCLINATION>45.0403</INCLINATION><RA_OF_ASC_NODE>10.6588</RA_OF_ASC_NODE><ARG_OF_PERICENTER>3.7258</ARG_OF_PERICENTER><MEAN_ANOMALY>356.3621</MEAN_ANOMALY></meanElements><tleParameters><EPHEMERIS_TYPE>0</EPHEMERIS_TYPE><CLASSIFICATION_TYPE>U</CLASSIFICATION_TYPE><NORAD_CAT_ID>25984</NORAD_CAT_ID><ELEMENT_SET_NO>999</ELEMENT_SET_NO><REV_AT_EPOCH>32651</REV_AT_EPOCH><BSTAR>.64307E-3</BSTAR><MEAN_MOTION_DOT>.1819E-4</MEAN_MOTION_DOT><MEAN_MOTION_DDOT>0</MEAN_MOTION_DDOT></tleParameters></data></segment></body></omm>
<omm id="CCSDS_OMM_VERS" version="2.0">
<header><CREATION_DATE/><ORIGINATOR/></header><body><segment><metadata><OBJECT_NAME>ORBCOMM FM35</OBJECT_NAME><OBJECT_ID>1999-065F</OBJECT_ID><CENTER_NAME>EARTH</CENTER_NAME><REF_FRAME>TEME</REF_FRAME><TIME_SYSTEM>UTC</TIME_SYSTEM><MEAN_ELEMENT_THEORY>SGP4</MEAN_ELEMENT_THEORY></metadata><data><meanElements><EPOCH>2025-04-18T19:20:11.910624</EPOCH><MEAN_MOTION>14.36940143</MEAN_MOTION><ECCENTRICITY>.000333</ECCENTRICITY><INCLINATION>45.0405</INCLINATION><RA_OF_ASC_NODE>16.8380</RA_OF_ASC_NODE><ARG_OF_PERICENTER>79.4440</ARG_OF_PERICENTER><MEAN_ANOMALY>280.6783</MEAN_ANOMALY></meanElements><tleParameters><EPHEMERIS_TYPE>0</EPHEMERIS_TYPE><CLASSIFICATION_TYPE>U</CLASSIFICATION_TYPE><NORAD_CAT_ID>25985</NORAD_CAT_ID><ELEMENT_SET_NO>999</ELEMENT_SET_NO><REV_AT_EPOCH>32643</REV_AT_EPOCH><BSTAR>.62857E-3</BSTAR><MEAN_MOTION_DOT>.1736E-4</MEAN_MOTION_DOT><MEAN_MOTION_DDOT>0</MEAN_MOTION_DDOT></tleParameters></data></segment></body></omm>
<omm id="CCSDS_OMM_VERS" version="2.0">
<header><CREATION_DATE/><ORIGINATOR/></header><body><segment><metadata><OBJECT_NAME>ORBCOMM FM34</OBJECT_NAME><OBJECT_ID>1999-065G</OBJECT_ID><CENTER_NAME>EARTH</CENTER_NAME><REF_FRAME>TEME</REF_FRAME><TIME_SYSTEM>UTC</TIME_SYSTEM><MEAN_ELEMENT_THEORY>SGP4</MEAN_ELEMENT_THEORY></metadata><data><meanElements><EPOCH>2025-04-18T20:13:07.088160</EPOCH><MEAN_MOTION>14.36976972</MEAN_MOTION><ECCENTRICITY>.000449</ECCENTRICITY><INCLINATION>45.0400</INCLINATION><RA_OF_ASC_NODE>17.1491</RA_OF_ASC_NODE><ARG_OF_PERICENTER>33.6029</ARG_OF_PERICENTER><MEAN_ANOMALY>326.5104</MEAN_ANOMALY></meanElements><tleParameters><EPHEMERIS_TYPE>0</EPHEMERIS_TYPE><CLASSIFICATION_TYPE>U</CLASSIFICATION_TYPE><NORAD_CAT_ID>25986</NORAD_CAT_ID><ELEMENT_SET_NO>999</ELEMENT_SET_NO><REV_AT_EPOCH>32640</REV_AT_EPOCH><BSTAR>.59087E-3</BSTAR><MEAN_MOTION_DOT>.1625E-4</MEAN_MOTION_DOT><MEAN_MOTION_DDOT>0</MEAN_MOTION_DDOT></tleParameters></data></segment></body></omm>
<omm id="CCSDS_OMM_VERS" version="2.0">
<header><CREATION_DATE/><ORIGINATOR/></header><body><segment><metadata><OBJECT_NAME>ORBCOMM FM38</OBJECT_NAME><OBJECT_ID>2008-031A</OBJECT_ID><CENTER_NAME>EARTH</CENTER_NAME><REF_FRAME>TEME</REF_FRAME><TIME_SYSTEM>UTC</TIME_SYSTEM><MEAN_ELEMENT_THEORY>SGP4</MEAN_ELEMENT_THEORY></metadata><data><meanElements><EPOCH>2025-04-17T18:28:18.878016</EPOCH><MEAN_MOTION>14.81029234</MEAN_MOTION><ECCENTRICITY>.00048</ECCENTRICITY><INCLINATION>48.4393</INCLINATION><RA_OF_ASC_NODE>243.1199</RA_OF_ASC_NODE><ARG_OF_PERICENTER>146.6274</ARG_OF_PERICENTER><MEAN_ANOMALY>213.4945</MEAN_ANOMALY></meanElements><tleParameters><EPHEMERIS_TYPE>0</EPHEMERIS_TYPE><CLASSIFICATION_TYPE>U</CLASSIFICATION_TYPE><NORAD_CAT_ID>33060</NORAD_CAT_ID><ELEMENT_SET_NO>999</ELEMENT_SET_NO><REV_AT_EPOCH>90579</REV_AT_EPOCH><BSTAR>.56336E-3</BSTAR><MEAN_MOTION_DOT>.4204E-4</MEAN_MOTION_DOT><MEAN_MOTION_DDOT>0</MEAN_MOTION_DDOT></tleParameters></data></segment></body></omm>
<omm id="CCSDS_OMM_VERS" version="2.0">
<header><CREATION_DATE/><ORIGINATOR/></header><body><segment><metadata><OBJECT_NAME>ORBCOMM FM41</OBJECT_NAME><OBJECT_ID>2008-031B</OBJECT_ID><CENTER_NAME>EARTH</CENTER_NAME><REF_FRAME>TEME</REF_FRAME><TIME_SYSTEM>UTC</TIME_SYSTEM><MEAN_ELEMENT_THEORY>SGP4</MEAN_ELEMENT_THEORY></metadata><data><meanElements><EPOCH>2025-04-17T18:47:12.612768</EPOCH><MEAN_MOTION>14.80630471</MEAN_MOTION><ECCENTRICITY>.000392</ECCENTRICITY><INCLINATION>48.4431</INCLINATION><RA_OF_ASC_NODE>250.6297</RA_OF_ASC_NODE><ARG_OF_PERICENTER>131.6066</ARG_OF_PERICENTER><MEAN_ANOMALY>10.6888</MEAN_ANOMALY></meanElements><tleParameters><EPHEMERIS_TYPE>0</EPHEMERIS_TYPE><CLASSIFICATION_TYPE>U</CLASSIFICATION_TYPE><NORAD_CAT_ID>33061</NORAD_CAT_ID><ELEMENT_SET_NO>999</ELEMENT_SET_NO><REV_AT_EPOCH>90528</REV_AT_EPOCH><BSTAR>.54849E-3</BSTAR><MEAN_MOTION_DOT>.4047E-4</MEAN_MOTION_DOT><MEAN_MOTION_DDOT>0</MEAN_MOTION_DDOT></tleParameters></data></segment></body></omm>
<omm id="CCSDS_OMM_VERS" version="2.0">
<header><CREATION_DATE/><ORIGINATOR/></header><body><segment><metadata><OBJECT_NAME>ORBCOMM FM29</OBJECT_NAME><OBJECT_ID>2008-031C</OBJECT_ID><CENTER_NAME>EARTH</CENTER_NAME><REF_FRAME>TEME</REF_FRAME><TIME_SYSTEM>UTC</TIME_SYSTEM><MEAN_ELEMENT_THEORY>SGP4</MEAN_ELEMENT_THEORY></metadata><data><meanElements><EPOCH>2025-04-18T20:29:37.802400</EPOCH><MEAN_MOTION>14.80718365</MEAN_MOTION><ECCENTRICITY>.0005654</ECCENTRICITY><INCLINATION>48.4382</INCLINATION><RA_OF_ASC_NODE>253.4109</RA_OF_ASC_NODE><ARG_OF_PERICENTER>133.2616</ARG_OF_PERICENTER><MEAN_ANOMALY>26.2253</MEAN_ANOMALY></meanElements><tleParameters><EPHEMERIS_TYPE>0</EPHEMERIS_TYPE><CLASSIFICATION_TYPE>U</CLASSIFICATION_TYPE><NORAD_CAT_ID>33062</NORAD_CAT_ID><ELEMENT_SET_NO>999</ELEMENT_SET_NO><REV_AT_EPOCH>90574</REV_AT_EPOCH><BSTAR>.46007E-3</BSTAR><MEAN_MOTION_DOT>.3367E-4</MEAN_MOTION_DOT><MEAN_MOTION_DDOT>0</MEAN_MOTION_DDOT></tleParameters></data></segment></body></omm>
<omm id="CCSDS_OMM_VERS" version="2.0">
<header><CREATION_DATE/><ORIGINATOR/></header><body><segment><metadata><OBJECT_NAME>ORBCOMM FM39</OBJECT_NAME><OBJECT_ID>2008-031D</OBJECT_ID><CENTER_NAME>EARTH</CENTER_NAME><REF_FRAME>TEME</REF_FRAME><TIME_SYSTEM>UTC</TIME_SYSTEM><MEAN_ELEMENT_THEORY>SGP4</MEAN_ELEMENT_THEORY></metadata><data><meanElements><EPOCH>2025-04-17T20:26:31.830720</EPOCH><MEAN_MOTION>14.79300534</MEAN_MOTION><ECCENTRICITY>.0006469</ECCENTRICITY><INCLINATION>48.4398</INCLINATION><RA_OF_ASC_NODE>281.8006</RA_OF_ASC_NODE><ARG_OF_PERICENTER>98.7171</ARG_OF_PERICENTER><MEAN_ANOMALY>261.4476</MEAN_ANOMALY></meanElements><tleParameters><EPHEMERIS_TYPE>0</EPHEMERIS_TYPE><CLASSIFICATION_TYPE>U</CLASSIFICATION_TYPE><NORAD_CAT_ID>33063</NORAD_CAT_ID><ELEMENT_SET_NO>999</ELEMENT_SET_NO><REV_AT_EPOCH>90486</REV_AT_EPOCH><BSTAR>.50911E-3</BSTAR><MEAN_MOTION_DOT>.362E-4</MEAN_MOTION_DOT><MEAN_MOTION_DDOT>0</MEAN_MOTION_DDOT></tleParameters></data></segment></body></omm>

</ndm>
