ORBCOMM FM33            
1 25983U 99065D   25107.80138011  .00002064  00000+0  69608-3 0  9996
2 25983  45.0282 286.0231 0008883 122.3268 237.8443 14.39837202327364
ORBCOMM FM36            
1 25984U 99065E   25109.14599445  .00001819  00000+0  64307-3 0  9996
2 25984  45.0403  10.6588 0004174   3.7258 356.3621 14.37946936326510
ORBCOMM FM35            
1 25985U 99065F   25108.80569341  .00001736  00000+0  62857-3 0  9997
2 25985  45.0405  16.8380 0003330  79.4440 280.6783 14.36940143326439
ORBCOMM FM34            
1 25986U 99065G   25108.84244315  .00001625  00000+0  59087-3 0  9991
2 25986  45.0400  17.1491 0004490  33.6029 326.5104 14.36976972326408
ORBCOMM FM38            
1 33060U 08031A   25107.76966294  .00004204  00000+0  56336-3 0  9993
2 33060  48.4393 243.1199 0004800 146.6274 213.4945 14.81029234905798
ORBCOMM FM41            
1 33061U 08031B   25107.78278487  .00004047  00000+0  54849-3 0  9998
2 33061  48.4431 250.6297 0003920 131.6066  10.6888 14.80630471905286
ORBCOMM FM29            
1 33062U 08031C   25108.85390975  .00003367  00000+0  46007-3 0  9996
2 33062  48.4382 253.4109 0005654 133.2616  26.2253 14.80718365905749
ORBCOMM FM39            
1 33063U 08031D   25107.85175730  .00003620  00000+0  50911-3 0  9997
2 33063  48.4398 281.8006 0006469  98.7171 261.4476 14.79300534904869
